{
  "type": "FeatureCollection",
  "snapshot_id": "staging-20260807T010828-b1643ec7",
  "case_count": 28,
  "scope_note": "Points show published case-study locations. Point density does not measure hazard frequency, severity, or change.",
  "features": [
    {
      "type": "Feature",
      "geometry": {
        "type": "Point",
        "coordinates": [
          -121.4905,
          47.4009
        ]
      },
      "properties": {
        "public_id": "case-11c6d184d7c5",
        "slug": "case-11c6d184d7c5",
        "title": "Green Stormwater Infrastructure",
        "location": "Washington",
        "collection": "Washington and Pacific Northwest",
        "summary": "In Washington, Project partners leads the documented adaptation work. The adaptation action requires source repair. The cited source documents the project context and implementation approach. It should not be read as evidence that the same results will occur in another community, watershed, utility, or institutional setting.",
        "primary_hazard": "OTHER_ADAPTATION",
        "hazard_label": "Other adaptation",
        "hazard_color": "#7A8492",
        "implementation_stage": "Planning and design",
        "location_precision": "STATE_CENTROID",
        "coordinate_status": "PROVISIONAL_GAZETTEER",
        "display_order": 0
      }
    },
    {
      "type": "Feature",
      "geometry": {
        "type": "Point",
        "coordinates": [
          -122.3321,
          47.6062
        ]
      },
      "properties": {
        "public_id": "case-f1e1186726cc",
        "slug": "case-f1e1186726cc",
        "title": "Seattle RainWise Residential Stormwater Retrofits",
        "location": "Seattle, Washington",
        "collection": "Washington and Pacific Northwest",
        "summary": "In Seattle, Washington, Project partners rebates and approved-contractor support for rain gardens and cisterns on eligible private properties. Heavy rainfall and stormwater entering combined sewer infrastructure can contribute to polluted overflows. Project records place the work in the implement stage. Internal field-beta inclusion only; source support, outcomes, sensitive wording, and technical claims remain human-review gated. The cited source documents the project context and implementation approach. It should not be read as evidence that the same results will occur in another community, watershed, utility, or institutional setting.",
        "primary_hazard": "RIVER_FLOODING_STORMWATER",
        "hazard_label": "River flooding & stormwater",
        "hazard_color": "#2563A6",
        "implementation_stage": "Implementation",
        "location_precision": "CITY_CENTROID",
        "coordinate_status": "PROVISIONAL_GAZETTEER",
        "display_order": 1
      }
    },
    {
      "type": "Feature",
      "geometry": {
        "type": "Point",
        "coordinates": [
          -121.68,
          47.85
        ]
      },
      "properties": {
        "public_id": "case-ea09a24590a7",
        "slug": "case-ea09a24590a7",
        "title": "Tulalip Beaver Relocation",
        "location": "Upper Snohomish / Skykomish watershed, Washington",
        "collection": "Washington and Pacific Northwest",
        "summary": "In Upper Snohomish / Skykomish watershed, Washington, Project partners relocate nuisance beavers from developed areas to hydrologically impaired tributaries or public land to support fish habitat and water storage. supporting source explicitly links relocation to warming and drying climate; use qualified mechanism wording. Project records place the work in the monitor stage. Historical relocation and wildlife-camera monitoring are reported in the supporting source. No independent measured project outcome identified. Nation-led ecosystem and hydrologic restoration example. The source reports project information, but this record does not establish that the same outcomes will occur in other places or under different conditions.",
        "primary_hazard": "DROUGHT_WATER_SUPPLY",
        "hazard_label": "Drought & water supply",
        "hazard_color": "#7656A5",
        "implementation_stage": "Monitoring and adaptive management",
        "location_precision": "SITE_CENTROID",
        "coordinate_status": "PROVISIONAL_GAZETTEER",
        "display_order": 2
      }
    },
    {
      "type": "Feature",
      "geometry": {
        "type": "Point",
        "coordinates": [
          -122.576,
          48.4155
        ]
      },
      "properties": {
        "public_id": "case-f8d8e2679560",
        "slug": "case-f8d8e2679560",
        "title": "Swinomish Kiket Island Clam Garden",
        "location": "Kiket Island, Swinomish Reservation, Washington",
        "collection": "Washington and Pacific Northwest",
        "summary": "In Kiket Island, Swinomish Reservation, Washington, Project partners community-based biocultural clam-garden restoration using rock-terrace construction and tending. source explicitly links the project to sea-level rise and ocean acidification. Project records place the work in the monitor stage. Construction began; long-term monitoring initiated. No measured project outcome identified. Nation-led biocultural and nature-based coastal adaptation. Measured ecological/cultural outcomes, private cultural knowledge, or generalized transferability.",
        "primary_hazard": "ECOSYSTEM_HABITAT",
        "hazard_label": "Ecosystem, habitat & fisheries",
        "hazard_color": "#398B64",
        "implementation_stage": "Monitoring and adaptive management",
        "location_precision": "SITE_CENTROID",
        "coordinate_status": "PROVISIONAL_GAZETTEER",
        "display_order": 3
      }
    },
    {
      "type": "Feature",
      "geometry": {
        "type": "Point",
        "coordinates": [
          -124.2891,
          47.3476
        ]
      },
      "properties": {
        "public_id": "case-202b933f7f34",
        "slug": "case-202b933f7f34",
        "title": "Quinault Taholah Village Relocation",
        "location": "Taholah, Quinault Indian Nation, Washington",
        "collection": "Washington and Pacific Northwest",
        "summary": "In Taholah, Quinault Indian Nation, Washington, Project partners plan phased relocation of Taholah Village to higher ground to address coastal and river-flooding risks. coastal/river flooding and storm-surge exposure are documented; tsunami/earthquake hazards must remain separate. Project records place the work in the implement stage. Master-plan adoption and phased relocation planning. No measured relocation outcome identified. Nation-led relocation and long-horizon planning. Completed relocation, guaranteed protection, or mixing tsunami/earthquake hazards into the climate claim.",
        "primary_hazard": "COASTAL_FLOODING_EROSION",
        "hazard_label": "Coastal flooding & erosion",
        "hazard_color": "#147D92",
        "implementation_stage": "Implementation",
        "location_precision": "CITY_CENTROID",
        "coordinate_status": "PROVISIONAL_GAZETTEER",
        "display_order": 4
      }
    },
    {
      "type": "Feature",
      "geometry": {
        "type": "Point",
        "coordinates": [
          -120.3158,
          46.2557
        ]
      },
      "properties": {
        "public_id": "case-3a7082ea7b13",
        "slug": "case-3a7082ea7b13",
        "title": "Lower Toppenish Creek Fish Passage Restoration",
        "location": "Lower Toppenish Creek, Washington",
        "collection": "Washington and Pacific Northwest",
        "summary": "In Lower Toppenish Creek, Washington, Project partners develop fish-passage restoration at Lower Toppenish Creek; source page lists the project as In Development. Unresolved evidence: source supports a restoration project but does not directly connect the project to a climate mechanism; G3 cannot pass. Project records place the work in the assess stage. Planned restoration scope; In Development status. No measured outcome identified. Fish-passage action needing direct climate-mechanism evidence. Completed acreage/outcomes, climate adaptation claim without direct evidence, or earthquake/geologic framing.",
        "primary_hazard": "ECOSYSTEM_HABITAT",
        "hazard_label": "Ecosystem, habitat & fisheries",
        "hazard_color": "#398B64",
        "implementation_stage": "Planning and design",
        "location_precision": "SITE_CENTROID",
        "coordinate_status": "PROVISIONAL_GAZETTEER",
        "display_order": 5
      }
    },
    {
      "type": "Feature",
      "geometry": {
        "type": "Point",
        "coordinates": [
          -122.325,
          47.549
        ]
      },
      "properties": {
        "public_id": "case-6d73f76fa8ce",
        "slug": "case-6d73f76fa8ce",
        "title": "Duwamish Valley Climate Resilience",
        "location": "Duwamish Valley, Seattle, Washington",
        "collection": "Washington and Pacific Northwest",
        "summary": "In Duwamish Valley, Seattle, Washington, Project partners develop Duwamish Valley resilience-district work; narrow to one bounded action or site before scoring. Conditional evidence: climate-justice/resilience framing is broad; one hazard/action/site is required. Project records place the work in the assess stage. District program/work areas. No single intervention outcome identified. Place-based climate-justice and governance perspective. One-project, one-outcome, or generic climate-mechanism claims without a selected intervention.",
        "primary_hazard": "MULTI_HAZARD_GOVERNANCE",
        "hazard_label": "Multi-hazard & governance",
        "hazard_color": "#5D6570",
        "implementation_stage": "Planning and design",
        "location_precision": "SITE_CENTROID",
        "coordinate_status": "PROVISIONAL_GAZETTEER",
        "display_order": 6
      }
    },
    {
      "type": "Feature",
      "geometry": {
        "type": "Point",
        "coordinates": [
          -118.343,
          46.0646
        ]
      },
      "properties": {
        "public_id": "case-1e466d65ac2d",
        "slug": "case-1e466d65ac2d",
        "title": "Walla Walla Water 2050",
        "location": "Walla Walla Basin, Washington",
        "collection": "Washington and Pacific Northwest",
        "summary": "In Walla Walla Basin, Washington, Project partners implement a basin-scale water-management strategy; select one bounded project or decision for a case card. PASS for drought/water-supply relevance; no single bounded physical project selected. Project records place the work in the implement stage. Final strategy and implementation framework. No basin-wide measured adaptation outcome identified. Drought, aquifer, snowpack, and basin-governance perspective. Measured water-security, drought, or water-supply outcomes without action-specific evidence.",
        "primary_hazard": "DROUGHT_WATER_SUPPLY",
        "hazard_label": "Drought & water supply",
        "hazard_color": "#7656A5",
        "implementation_stage": "Implementation",
        "location_precision": "CITY_CENTROID",
        "coordinate_status": "PROVISIONAL_GAZETTEER",
        "display_order": 7
      }
    },
    {
      "type": "Feature",
      "geometry": {
        "type": "Point",
        "coordinates": [
          -117.426,
          47.6588
        ]
      },
      "properties": {
        "public_id": "case-e279bcc0f99e",
        "slug": "case-e279bcc0f99e",
        "title": "Spokane Community Resilience Hub Network Pilot",
        "location": "Spokane, Washington",
        "collection": "Washington and Pacific Northwest",
        "summary": "In Spokane, Washington, Project partners develop a multi-hazard resilience-hub network pilot for heat, wildfire smoke, and service continuity. heat and wildfire smoke are explicit multi-hazard framing candidates. Project records place the work in the pilot stage. Pilot sites/model and planned engagement are reported. No measured outcome identified. Eastern Washington neighborhood heat/smoke pilot. Operational performance or measured heat, smoke, health, or resilience outcomes.",
        "primary_hazard": "EXTREME_HEAT_SMOKE",
        "hazard_label": "Extreme heat & smoke",
        "hazard_color": "#C44A35",
        "implementation_stage": "Pilot",
        "location_precision": "CITY_CENTROID",
        "coordinate_status": "PROVISIONAL_GAZETTEER",
        "display_order": 8
      }
    },
    {
      "type": "Feature",
      "geometry": {
        "type": "Point",
        "coordinates": [
          -120.1887,
          48.4737
        ]
      },
      "properties": {
        "public_id": "case-22e5a21896c5",
        "slug": "case-22e5a21896c5",
        "title": "Fire Adapted Methow Neighborhood Ambassador Program",
        "location": "Methow Valley, Washington",
        "collection": "Washington and Pacific Northwest",
        "summary": "In Methow Valley, Washington, Project partners neighborhood ambassador program provides education, guidance, resources, and volunteer-led engagement to motivate fire-adaptation strategies. wildfire risk and smoke/evacuation preparedness are explicit. Project records place the work in the implement stage. Education/guidance/resources; reported relationship/network building; planned WiRē study. No independent measured outcome identified. Community wildfire preparedness and neighborhood engagement. Demonstrated participation, effectiveness, wildfire loss reduction, verified behavior change, or independently measured outcomes.",
        "primary_hazard": "WILDFIRE_FOREST",
        "hazard_label": "Wildfire & forest resilience",
        "hazard_color": "#D97724",
        "implementation_stage": "Implementation",
        "location_precision": "SITE_CENTROID",
        "coordinate_status": "PROVISIONAL_GAZETTEER",
        "display_order": 9
      }
    },
    {
      "type": "Feature",
      "geometry": {
        "type": "Point",
        "coordinates": [
          -122.3321,
          47.6062
        ]
      },
      "properties": {
        "public_id": "case-379ca304e175",
        "slug": "case-379ca304e175",
        "title": "Seattle Cool and Clean Air Library Upgrades",
        "location": "University, Columbia, West Seattle, Queen Anne, and Fremont library branches, Seattle, Washington",
        "collection": "Washington and Pacific Northwest",
        "summary": "In University, Columbia, West Seattle, Queen Anne, and Fremont library branches, Seattle, Washington, Project partners upgrade five library branches with air conditioning, modern ventilation, and related electrical/mechanical work to serve as cooling centers. extreme heat and wildfire smoke are explicitly linked to cooling-center and filtered-air upgrades. Project records place the work in the assess stage. Five-branch project and branch-level design/bid/renovation statuses documented in 2025–2026 public materials. No measured health or resilience outcome identified. Public-facility heat and smoke adaptation with accessibility relevance. All five upgrades completed or operating as cooling centers, or measured health/resilience outcomes.",
        "primary_hazard": "EXTREME_HEAT_SMOKE",
        "hazard_label": "Extreme heat & smoke",
        "hazard_color": "#C44A35",
        "implementation_stage": "Planning and design",
        "location_precision": "CITY_CENTROID",
        "coordinate_status": "PROVISIONAL_GAZETTEER",
        "display_order": 10
      }
    },
    {
      "type": "Feature",
      "geometry": {
        "type": "Point",
        "coordinates": [
          -122.9007,
          47.0379
        ]
      },
      "properties": {
        "public_id": "case-83e297953024",
        "slug": "case-83e297953024",
        "title": "Olympia Sea Level Rise Response Plan",
        "location": "Olympia, Washington",
        "collection": "Washington and Pacific Northwest",
        "summary": "In Olympia, Washington, Project partners maintain a sea-level-rise response plan through current and five-year work plans and collaboration; do not collapse plan into one completed project. sea-level-rise exposure is explicit. Project records place the work in the implement stage. Plan and work-plan framework documented. No measured adaptation outcome identified in the controlling page. Municipal planning and governance without implying built protection. Completed physical protection, measured flood reduction, or deterministic future outcomes without action-specific evidence.",
        "primary_hazard": "COASTAL_FLOODING_EROSION",
        "hazard_label": "Coastal flooding & erosion",
        "hazard_color": "#147D92",
        "implementation_stage": "Implementation",
        "location_precision": "CITY_CENTROID",
        "coordinate_status": "PROVISIONAL_GAZETTEER",
        "display_order": 11
      }
    },
    {
      "type": "Feature",
      "geometry": {
        "type": "Point",
        "coordinates": [
          -124.0543,
          46.7205
        ]
      },
      "properties": {
        "public_id": "case-5a144b34bd8a",
        "slug": "case-5a144b34bd8a",
        "title": "North Cove Dynamic Revetment",
        "location": "North Cove, Washington coast",
        "collection": "Washington and Pacific Northwest",
        "summary": "In North Cove, Washington coast, Project partners site-specific dynamic revetment using cobble/rocks, with monitoring and adaptive management. bounded coastal erosion/flooding exposure and shoreline adaptation action. Project records place the work in the monitor stage. Dynamic revetment installed; monitoring/adaptive-management activities reported. Site monitoring observations reported; no universal effect estimate. Implemented coastal engineering with monitoring and adaptive management. Hazard elimination, guaranteed effectiveness, universal transferability, or Nation-led ownership.",
        "primary_hazard": "COASTAL_FLOODING_EROSION",
        "hazard_label": "Coastal flooding & erosion",
        "hazard_color": "#147D92",
        "implementation_stage": "Monitoring and adaptive management",
        "location_precision": "SITE_CENTROID",
        "coordinate_status": "PROVISIONAL_GAZETTEER",
        "display_order": 12
      }
    },
    {
      "type": "Feature",
      "geometry": {
        "type": "Point",
        "coordinates": [
          144.7852,
          -37.4713
        ]
      },
      "properties": {
        "public_id": "case-f3631072d960",
        "slug": "case-f3631072d960",
        "title": "How Are We Safer Together?",
        "location": "Victoria, Australia",
        "collection": "Transferable Examples from Other Regions",
        "summary": "In Victoria, Australia, Project partners risk-based fuel management-Used landscape-scale fire behavior modeling and community values to prioritize where and how to reduce fuels through planned burns or mechanical treatments. Community collaboration: Partnered with local governments and community members to co-design preparedness and response strategies through tailored outreach, local workshops, and shared decision-making; Behavioral insights research: Partnered with BehaviourWorks Australia to study what drives or inhibits household-level preparedness and to pilot behavior-change strategies; Smoke and health research: Collaborated with CSIRO, EPA Victoria, and BoM to assess the public health impacts of smoke and guide burn scheduling accordingly; Transparency and accountability: Developed public dashboards and reporting tools to communicate risk reduction efforts, trade-offs, and performance outcomes. Wildfire & Smoke. Project records place the work in the assess stage. The Safer Together program led to more targeted and transparent fuel management across Victoria, reducing bushfire risk while incorporating community values.",
        "primary_hazard": "WILDFIRE_FOREST",
        "hazard_label": "Wildfire & forest resilience",
        "hazard_color": "#D97724",
        "implementation_stage": "Planning and design",
        "location_precision": "CITY_CENTROID",
        "coordinate_status": "PROVISIONAL_GAZETTEER",
        "display_order": 13
      }
    },
    {
      "type": "Feature",
      "geometry": {
        "type": "Point",
        "coordinates": [
          144.7852,
          -37.4713
        ]
      },
      "properties": {
        "public_id": "case-acd0bfa7d58b",
        "slug": "case-acd0bfa7d58b",
        "title": "The People and the Fire Tree: Co-Designing a Bushfire Early Warning System",
        "location": "Victoria, Australia",
        "collection": "Transferable Examples from Other Regions",
        "summary": "In Victoria, Australia, Project partners leads the documented adaptation work. The project used participatory co-design methods through five workshops with residents of a rural, fire-prone community in Victoria. Participants developed two systems: The Fire Tree—a visual tool for tracking fire threat levels—and The People System—a platform integrating official government resources with informal local communication networks. The collaboration involved researchers from Swinburne University’s Centre for Design Innovation and Centre for Social Impact, emphasizing lived experience, local insight, and institutional coordination. Wildfire & Smoke, Flooding. Project records place the work in the evaluate stage. The result was Bushfire, a prototype early-warning platform tailored to local needs and designed to strengthen both formal and informal communication. The project increased residents’ sense of agency and confidence in preparedness while creating a tool that bridges gaps between community response and institutional systems.",
        "primary_hazard": "RIVER_FLOODING_STORMWATER",
        "hazard_label": "River flooding & stormwater",
        "hazard_color": "#2563A6",
        "implementation_stage": "Monitoring and adaptive management",
        "location_precision": "CITY_CENTROID",
        "coordinate_status": "PROVISIONAL_GAZETTEER",
        "display_order": 14
      }
    },
    {
      "type": "Feature",
      "geometry": {
        "type": "Point",
        "coordinates": [
          -122.6784,
          45.5152
        ]
      },
      "properties": {
        "public_id": "case-84a5d7c35ef2",
        "slug": "case-84a5d7c35ef2",
        "title": "Quantifying & Visualizing Urban Heat in Portland through Community Depaving",
        "location": "Portland, OR",
        "collection": "Washington and Pacific Northwest",
        "summary": "In Portland, OR, Project partners remote sensing & data mapping; Collaborated with Depave, a nonprofit that engages communities in converting pavement to green spaces in vulnerable neighborhoods; Analyzed six case study locations to measure changes in LST after depaving, allowing real-world assessment of local interventions to quantify impact. Extreme Heat. Project records place the work in the adapt stage. Frontline communities identified-Mapped neighborhoods with both high temperature exposure and social vulnerability, emphasizing areas needing urgent attention; Depaving effectiveness-Demonstrated an average reduction of ~1 °F in surface temperature across depaved sites, highlighting quantifiable cooling benefits; Method development: Validated a replicable approach combining remote sensing and community intervention to assess and mitigate urban heat impacts. Washington cities like Seattle face similar challenges with urban heat and environmental inequities.",
        "primary_hazard": "EXTREME_HEAT_SMOKE",
        "hazard_label": "Extreme heat & smoke",
        "hazard_color": "#C44A35",
        "implementation_stage": "Monitoring and adaptive management",
        "location_precision": "CITY_CENTROID",
        "coordinate_status": "PROVISIONAL_GAZETTEER",
        "display_order": 15
      }
    },
    {
      "type": "Feature",
      "geometry": {
        "type": "Point",
        "coordinates": [
          -87.6298,
          41.8781
        ]
      },
      "properties": {
        "public_id": "case-1e4e1b001b0b",
        "slug": "case-1e4e1b001b0b",
        "title": "Chicago Uses Green Infrastructure to Reduce Extreme Heat",
        "location": "Chicago, IL",
        "collection": "Transferable Examples from Other Regions",
        "summary": "In Chicago, IL, Project partners climate vulnerability assessment; Introduced green roofs, cool roofs (EPA Energy Star standards), and expanded tree canopy via incentives like expedited permits and tax-funded grants; Partnered with the Field Museum and CDC to target outreach in vulnerable, predominantly Black neighborhoods, raising awareness and building preparedness; Updated heat-response protocols, established cooling centers (e.g., libraries), expanded Notify Chicago alerts. Extreme Heat, Flooding. Project records place the work in the adapt stage. Data-driven targeting led to investments in green and cool infrastructure across the city’s heat-prone zones; Thousands of trees, cool roofs, and green roofs were installed—green roofs now feature on City Hall and commercial buildings; Heat-resilient planning was institutionalized in Chicago’s 2008 Climate Action Plan and Cook County’s Hazard Mitigation strategy; Increased community awareness and capacity to respond to heat emergencies, especially in at-risk neighborhoods.",
        "primary_hazard": "RIVER_FLOODING_STORMWATER",
        "hazard_label": "River flooding & stormwater",
        "hazard_color": "#2563A6",
        "implementation_stage": "Monitoring and adaptive management",
        "location_precision": "CITY_CENTROID",
        "coordinate_status": "PROVISIONAL_GAZETTEER",
        "display_order": 16
      }
    },
    {
      "type": "Feature",
      "geometry": {
        "type": "Point",
        "coordinates": [
          2.3522,
          48.8566
        ]
      },
      "properties": {
        "public_id": "case-11c95c93520c",
        "slug": "case-11c95c93520c",
        "title": "Adapting Paris: Climate Resilience Strategies in the Face of Rising Temperatures",
        "location": "Paris, France",
        "collection": "Transferable Examples from Other Regions",
        "summary": "In Paris, France, Project partners paris implemented over 1,300 “cool islands” by combining data-driven heat risk mapping with nature-based and built solutions like shaded parks, water features, and public building access. The initiative prioritized equitable access, aiming to ensure that all residents, especially in vulnerable neighborhoods, were within a 10-minute walk of a cool zone. Extreme Heat. Project records place the work in the evaluate stage. Paris successfully implemented a network of over 1,300 publicly accessible cool zones, including shaded spaces, green schoolyards, misting stations, and cooling centers; Vulnerable residents gained increased access to relief during extreme heat, reducing health risks; The initiative has become a model for other cities, demonstrating how local governments can integrate health, equity, and climate resilience into daily urban life; The strategy has been embedded in Paris’s long-term climate adaptation and public health planning.",
        "primary_hazard": "EXTREME_HEAT_SMOKE",
        "hazard_label": "Extreme heat & smoke",
        "hazard_color": "#C44A35",
        "implementation_stage": "Monitoring and adaptive management",
        "location_precision": "CITY_CENTROID",
        "coordinate_status": "PROVISIONAL_GAZETTEER",
        "display_order": 17
      }
    },
    {
      "type": "Feature",
      "geometry": {
        "type": "Point",
        "coordinates": [
          2.3522,
          48.8566
        ]
      },
      "properties": {
        "public_id": "case-936fc09f416c",
        "slug": "case-936fc09f416c",
        "title": "Paris Oasis Schoolyard Program",
        "location": "Paris, France",
        "collection": "Transferable Examples from Other Regions",
        "summary": "In Paris, France, Project partners through a co-design and nature-based approach Paris was able to turn heat-prone, paved schoolyards into cool, green, and accessible spaces. The project utilized community engagement strategies, climate models, and pilot projects, to successfully implement more permeable surfaces, vegetation, and water retention features to reduce urban heat and stormwater runoff within schoolyards. Extreme Heat. Project records place the work in the evaluate stage. Dozens of schoolyards across Paris were successfully redesigned and opened to the public; Surface temperatures in OASIS yards were significantly lower compared to traditional schoolyards; Increased awareness and participation among students, teachers, and neighborhood residents; The program is now being scaled up as a citywide adaptation measure. The OASIS Schoolyard Programme is highly relevant to Washington, particularly urban areas like Seattle, which experiences increased risks from extreme heat, stormwater runoff, and inequitable access to green space.",
        "primary_hazard": "EXTREME_HEAT_SMOKE",
        "hazard_label": "Extreme heat & smoke",
        "hazard_color": "#C44A35",
        "implementation_stage": "Monitoring and adaptive management",
        "location_precision": "CITY_CENTROID",
        "coordinate_status": "PROVISIONAL_GAZETTEER",
        "display_order": 18
      }
    },
    {
      "type": "Feature",
      "geometry": {
        "type": "Point",
        "coordinates": [
          -122.684,
          48.2163
        ]
      },
      "properties": {
        "public_id": "case-2114bfaec551",
        "slug": "case-2114bfaec551",
        "title": "Island County Sea Level Rise Strategy Study",
        "location": "Island County, WA",
        "collection": "Washington and Pacific Northwest",
        "summary": "The Island County Sea Level Rise Strategy Study aimed to enhance flood preparedness and resilience by providing an actionable framework to strengthen the county’s coastlines, infrastructure, and ecosystems in the face of rising seas. A key objective was to integrate adaptation strategies into Shoreline Master Programs and other planning documents, ensuring that technical data translated effectively into policy. The project also focused on developing practical tools, such as vulnerability maps and implementation frameworks, to support local departments in incorporating sea level rise into everyday decision-making. Through collaborative workshops and public outreach, the study grounded its recommendations in both scientific insight and community values using a co-productive approach.",
        "primary_hazard": "COASTAL_FLOODING_EROSION",
        "hazard_label": "Coastal flooding & erosion",
        "hazard_color": "#147D92",
        "implementation_stage": "Monitoring and adaptive management",
        "location_precision": "COUNTY_CENTROID",
        "coordinate_status": "PROVISIONAL_GAZETTEER",
        "display_order": 19
      }
    },
    {
      "type": "Feature",
      "geometry": {
        "type": "Point",
        "coordinates": [
          -76.5027,
          39.0321
        ]
      },
      "properties": {
        "public_id": "case-112329203063",
        "slug": "case-112329203063",
        "title": "Pines on the Severn Living Shoreline",
        "location": "Arnold, Maryland",
        "collection": "Transferable Examples from Other Regions",
        "summary": "In Arnold, Maryland, Project partners construct a 400-foot living shoreline rather than replacing failing bulkheads with hard shoreline reinforcement. Shoreline erosion, flooding, drainage, and runoff pressures affected the community's shared Severn River waterfront. Project records place the work in the implement stage. The controlling source reports increased usable waterfront acreage, improved aesthetics and wildlife habitat, and greater resident awareness of water-quality issues. Useful as an external comparator for community shoreline planning, grant-supported implementation, and nature-based erosion control. The controlling source documents the project and source-reported observations; it does not establish independent measured effectiveness or justify broad claims about living-shoreline performance.",
        "primary_hazard": "COASTAL_FLOODING_EROSION",
        "hazard_label": "Coastal flooding & erosion",
        "hazard_color": "#147D92",
        "implementation_stage": "Implementation",
        "location_precision": "CITY_CENTROID",
        "coordinate_status": "PROVISIONAL_GAZETTEER",
        "display_order": 20
      }
    },
    {
      "type": "Feature",
      "geometry": {
        "type": "Point",
        "coordinates": [
          -122.521,
          47.6249
        ]
      },
      "properties": {
        "public_id": "case-ea1028ed5e0f",
        "slug": "case-ea1028ed5e0f",
        "title": "Powell Shoreline Restoration Project",
        "location": "Bainbridge Island, WA",
        "collection": "Washington and Pacific Northwest",
        "summary": "In Bainbridge Island, WA, Project partners remove bulkheads & Employ soft shoreline stabilization techniques. Marine & Coastal Changes. Project records place the work in the evaluate stage. Initiated in 2009 as a community-driven collaboration between the Powel family, Bainbridge Island Land Trust, and state and federal salmon recovery funders, the project removed approximately one-third of a mile of aging bulkheads and over 1,340 tons of riprap, concrete, and creosote timber. Over 2,500 native plants were installed, invasive species cleared, and intertidal habitat expanded by roughly 163%. A diverse stakeholder group—ranging from tribal representatives to city, engineering, and ecological experts guided the design process, supported by 1,200+ volunteer hours. The project also restored intertidal and salt marsh habitat, benefiting salmon and other wildlife. Large, private-property projects can serve as showcases and outreach opportunities, demonstrating feasibility and ecological benefits to other landowners.",
        "primary_hazard": "COASTAL_FLOODING_EROSION",
        "hazard_label": "Coastal flooding & erosion",
        "hazard_color": "#147D92",
        "implementation_stage": "Monitoring and adaptive management",
        "location_precision": "CITY_CENTROID",
        "coordinate_status": "PROVISIONAL_GAZETTEER",
        "display_order": 21
      }
    },
    {
      "type": "Feature",
      "geometry": {
        "type": "Point",
        "coordinates": [
          -122.3321,
          47.6062
        ]
      },
      "properties": {
        "public_id": "case-b26dd75b2d51",
        "slug": "case-b26dd75b2d51",
        "title": "Geothermal Heat Pump Case Study: Seattle Public Schools",
        "location": "Seattle, WA",
        "collection": "Washington and Pacific Northwest",
        "summary": "In Seattle, WA, Project partners geo-thermal heat pumps & electric boilers. Extreme Heat and Public Health. Project records place the work in the implement stage. All schools involved in project have replaced gas-fired boilers with geothermal heat pumps and electric boilers. Seattle Public Schools’ electrical supply is 91% renewable, and carbon credits offset the remaining 9%; operational greenhouse gas emissions are minimal. Highlights district-level AI-optimized geothermal heat pump systems as a model for statewide replication. Internal field-beta inclusion only; legacy wording, outcomes, source currency, and technical claims require human review.",
        "primary_hazard": "EXTREME_HEAT_SMOKE",
        "hazard_label": "Extreme heat & smoke",
        "hazard_color": "#C44A35",
        "implementation_stage": "Implementation",
        "location_precision": "CITY_CENTROID",
        "coordinate_status": "PROVISIONAL_GAZETTEER",
        "display_order": 22
      }
    },
    {
      "type": "Feature",
      "geometry": {
        "type": "Point",
        "coordinates": [
          -122.4194,
          37.7749
        ]
      },
      "properties": {
        "public_id": "case-487646af05ed",
        "slug": "case-487646af05ed",
        "title": "San Francisco – Drought Resilience Matrix",
        "location": "San Francisco, CA",
        "collection": "Transferable Examples from Other Regions",
        "summary": "In San Francisco, CA, Project partners internal planning tool, cross-departmental use. Drought & Water Supply. Project records place the work in the evaluate stage. The creation of the Drought Resilience Matrix to evaluate water supply alternatives in Urban Areas; The study concluded that while no solution is perfect, local, diversified supply options tend to be the most robust under prolonged drought conditions. Model for large urban utilities in Washington. Internal field-beta inclusion only; legacy wording, outcomes, source currency, and technical claims require human review.",
        "primary_hazard": "DROUGHT_WATER_SUPPLY",
        "hazard_label": "Drought & water supply",
        "hazard_color": "#7656A5",
        "implementation_stage": "Monitoring and adaptive management",
        "location_precision": "CITY_CENTROID",
        "coordinate_status": "PROVISIONAL_GAZETTEER",
        "display_order": 23
      }
    },
    {
      "type": "Feature",
      "geometry": {
        "type": "Point",
        "coordinates": [
          -117.1611,
          32.7157
        ]
      },
      "properties": {
        "public_id": "case-692e73b7e651",
        "slug": "case-692e73b7e651",
        "title": "San Diego Gas & Electric Wildfire Strategy",
        "location": "San Diego, CA",
        "collection": "Transferable Examples from Other Regions",
        "summary": "In San Diego, CA, Project partners through inter-organizational collaboration between SDG&E, UCLA, and the U.S. Forest Service a multidisciplinary tool was developed to aid in wildfire response and mitigation: Santa Ana Wildfire Threat Index. Wildfire & Smoke. Project records place the work in the adapt stage. Improved forecasts of fire-conducive weather, especially during Santa Ana events, with several days of advance notice. Operational enhancements, like temporarily disabling trunk lines in vulnerable areas, reducing the chance of equipment sparking fires. Cost savings, through avoided damages, reduced outages, and fewer wildfire ignitions linked to power infrastructure. Enhanced public safety, thanks to earlier alerts and better-prepared firefighters and utility staff. This case study highlights the critical role of early warning systems and localized risk forecasting, while demonstrating how public–private partnerships and collaboration with academic institutions can drive innovative, science-based solutions.",
        "primary_hazard": "WILDFIRE_FOREST",
        "hazard_label": "Wildfire & forest resilience",
        "hazard_color": "#D97724",
        "implementation_stage": "Monitoring and adaptive management",
        "location_precision": "CITY_CENTROID",
        "coordinate_status": "PROVISIONAL_GAZETTEER",
        "display_order": 24
      }
    },
    {
      "type": "Feature",
      "geometry": {
        "type": "Point",
        "coordinates": [
          -120.5,
          45.8
        ]
      },
      "properties": {
        "public_id": "case-4ede7f783a7c",
        "slug": "case-4ede7f783a7c",
        "title": "Risks & Regulation of Invasive Plants in a Changing Climate",
        "location": "Pacific Northwest, WA, OR, ID",
        "collection": "Washington and Pacific Northwest",
        "summary": "The primary goal of the Northwest RISCC Network project was to assess and address how climate change may increase the risk posed by invasive plant species in the Pacific Northwest. As temperatures rise and ecosystems shift, some non-native species that were previously benign or regionally constrained may become invasive threats. The project aimed to help land managers, policymakers, and regulatory agencies prepare for these changes by identifying high-risk species and adapting management tools and regulations accordingly.",
        "primary_hazard": "OTHER_ADAPTATION",
        "hazard_label": "Other adaptation",
        "hazard_color": "#7A8492",
        "implementation_stage": "Monitoring and adaptive management",
        "location_precision": "REGION_CENTROID",
        "coordinate_status": "PROVISIONAL_GAZETTEER",
        "display_order": 25
      }
    },
    {
      "type": "Feature",
      "geometry": {
        "type": "Point",
        "coordinates": [
          -120.5108,
          46.601
        ]
      },
      "properties": {
        "public_id": "case-65449b839105",
        "slug": "case-65449b839105",
        "title": "Natural Restoration and Cultural Knowledge of the Yakama Nation",
        "location": "Yakama Nation, WA",
        "collection": "Washington and Pacific Northwest",
        "summary": "This project will remove two diversion dams and a non-functional fish screen and replace them with appropriate fish passage structures on the Toppenish Creek in Washington. Removing these barriers will provide a clearer migration path to spawning habitats for Pacific lamprey and threatened steelhead. In addition to the benefits for fish species, this project will restore and enhance more than 450 acres of wetland habitat on the floodplain of Toppenish Creek. These floodplain wetlands are invaluable wildlife habitat for both migratory and resident species. Toppenish Creek is culturally significant to the Yakama Nation and the area serves as an educational site to retain tribal culture. Yakama Tribal members also hunt on the properties, and gather traditional foods and materials such as Wapato, tule, currants and chokecherries, and willow and dogwood.",
        "primary_hazard": "ECOSYSTEM_HABITAT",
        "hazard_label": "Ecosystem, habitat & fisheries",
        "hazard_color": "#398B64",
        "implementation_stage": "Implementation",
        "location_precision": "SITE_CENTROID",
        "coordinate_status": "PROVISIONAL_GAZETTEER",
        "display_order": 26
      }
    },
    {
      "type": "Feature",
      "geometry": {
        "type": "Point",
        "coordinates": [
          -122.234,
          48.0543
        ]
      },
      "properties": {
        "public_id": "case-d3a63b579b60",
        "slug": "case-d3a63b579b60",
        "title": "Tulalip Tribes Natural Resources Climate Change Adaptation",
        "location": "Tulalip, WA",
        "collection": "Washington and Pacific Northwest",
        "summary": "In Tulalip, WA, Project partners preparedness strategies. Marine & Coastal Changes, Drought & Water Supply, Flooding. Project records place the work in the implement stage. Health Programs, Hazard Mitigation Plan, Food Sovereignty, Energy Security, Sea Level Rise on the Reservation Coast, Forests [all ongoing]. Public health, hazard mitigation, food soveriengty, energy security in response to climate change. Internal field-beta inclusion only; legacy wording, outcomes, source currency, and technical claims require human review.",
        "primary_hazard": "COASTAL_FLOODING_EROSION",
        "hazard_label": "Coastal flooding & erosion",
        "hazard_color": "#147D92",
        "implementation_stage": "Implementation",
        "location_precision": "CITY_CENTROID",
        "coordinate_status": "PROVISIONAL_GAZETTEER",
        "display_order": 27
      }
    }
  ]
}
